1 52191U 22033AL  23255.97582102  .00049788  00000+0  13442-2 0  9990
2 52191  97.3605 337.5638 0008115 181.1964 178.9263 15.37573331 80754